FENGYUN 1C DEB          
1 31895U 99025CKW 26054.87935749  .00002297  00000+0  20092-2 0  9994
2 31895  99.0873  85.4769 0223356  36.7170 324.9051 13.75920289629027
FENGYUN 1C DEB          
1 31898U 99025CKZ 26046.86679359  .00006490  00000+0  94596-3 0  9999
2 31898  98.7052 280.8773 0143343  16.8180 343.7704 14.69381024666687
FENGYUN 1C DEB          
1 31899U 99025CLA 26058.96049237  .00001228  00000+0  10355-2 0  9994
2 31899 102.0755 148.6079 0178168 331.5526  27.5982 13.83751059686323
FENGYUN 1C DEB          
1 31901U 99025CLC 26057.14226645  .00000186  00000+0  15913-3 0  9995
2 31901  98.6121  18.1840 0131419 341.7187  17.9275 13.94192483644587
FENGYUN 1C DEB          
1 31902U 99025CLD 26063.42430042  .00001036  00000+0  40425-3 0  9993
2 31902  98.5188  45.6767 0178723 271.3947 244.3083 14.23461108659534
FENGYUN 1C DEB          
1 31903U 99025CLE 26063.44874966  .00003806  00000+0  69872-3 0  9997
2 31903  99.2800  66.6643 0128361 147.8300 213.0811 14.61199130985880
FENGYUN 1C DEB          
1 31905U 99025CLG 26063.39257803  .00001883  00000+0  56730-3 0  9990
2 31905  99.1617  49.3522 0193927 216.4523 142.3326 14.33598535977945
FENGYUN 1C DEB          
1 31906U 99025CLH 26063.31832782  .00008078  00000+0  33809-2 0  9992
2 31906  98.6905 200.6718 0051721 239.8793 183.7474 14.25575241962916
FENGYUN 1C DEB          
1 31910U 99025CLM 26034.27001156  .00007163  00000+0  13993-2 0  9999
2 31910  97.6633  55.6434 0225377 353.1022   6.7086 14.48232089651290
FENGYUN 1C DEB          
1 31913U 99025CLQ 26063.74133733  .00004172  00000+0  28183-2 0  9997
2 31913  99.2928 349.9389 0193015  89.1909 273.1360 13.92314437570278
FENGYUN 1C DEB          
1 31914U 99025CLR 26062.10628386  .00000693  00000+0  13833-3 0  9991
2 31914  99.0195 296.6677 0181568 185.5395 174.3795 14.55889084696426
FENGYUN 1C DEB          
1 31915U 99025CLS 26061.33483200  .00002000  00000+0  97500-3 0  9997
2 31915  98.6287  81.7370 0101798  42.3065 318.5905 14.16509088652346
FENGYUN 1C DEB          
1 31916U 99025CLT 26036.50163259  .00006313  00000+0  20703-2 0  9999
2 31916  99.3240 130.8608 0144247 297.3658  61.2906 14.33006857653114
FENGYUN 1C DEB          
1 31917U 99025CLU 26063.77548985  .00003242  00000+0  88214-3 0  9992
2 31917  98.3685  59.4060 0190458  47.5322 125.5828 14.37944608976005
FENGYUN 1C DEB          
1 31919U 99025CLW 26057.65063836  .00000963  00000+0  26826-3 0  9999
2 31919  99.1107 210.6228 0101246 342.1352  78.0869 14.46029411981780
FENGYUN 1C DEB          
1 31921U 99025CLY 26061.66714862  .00001959  00000+0  17888-2 0  9993
2 31921  99.3366 317.4177 0203165  53.9169 308.0608 13.75485339934058
