[{"OBJECT_NAME":"FENGYUN 1C DEB","OBJECT_ID":"1999-025CKW","EPOCH":"2026-02-23T21:06:16.487136","MEAN_MOTION":13.75920289,"ECCENTRICITY":0.02233565,"INCLINATION":99.0873,"RA_OF_ASC_NODE":85.4769,"ARG_OF_PERICENTER":36.717,"MEAN_ANOMALY":324.9051,"EPHEMERIS_TYPE":0,"CLASSIFICATION_TYPE":"U","NORAD_CAT_ID":31895,"ELEMENT_SET_NO":999,"REV_AT_EPOCH":62902,"BSTAR":0.0020092236,"MEAN_MOTION_DOT":2.297e-5,"MEAN_MOTION_DDOT":0},{"OBJECT_NAME":"FENGYUN 1C DEB","OBJECT_ID":"1999-025CKZ","EPOCH":"2026-02-15T20:48:10.966176","MEAN_MOTION":14.69381024,"ECCENTRICITY":0.01433438,"INCLINATION":98.7052,"RA_OF_ASC_NODE":280.8773,"ARG_OF_PERICENTER":16.818,"MEAN_ANOMALY":343.7704,"EPHEMERIS_TYPE":0,"CLASSIFICATION_TYPE":"U","NORAD_CAT_ID":31898,"ELEMENT_SET_NO":999,"REV_AT_EPOCH":66668,"BSTAR":0.00094596182,"MEAN_MOTION_DOT":6.49e-5,"MEAN_MOTION_DDOT":0},{"OBJECT_NAME":"FENGYUN 1C DEB","OBJECT_ID":"1999-025CLA","EPOCH":"2026-02-27T23:03:06.540768","MEAN_MOTION":13.83751059,"ECCENTRICITY":0.01781687,"INCLINATION":102.0755,"RA_OF_ASC_NODE":148.6079,"ARG_OF_PERICENTER":331.5526,"MEAN_ANOMALY":27.5982,"EPHEMERIS_TYPE":0,"CLASSIFICATION_TYPE":"U","NORAD_CAT_ID":31899,"ELEMENT_SET_NO":999,"REV_AT_EPOCH":68632,"BSTAR":0.0010354982,"MEAN_MOTION_DOT":1.228e-5,"MEAN_MOTION_DDOT":0},{"OBJECT_NAME":"FENGYUN 1C DEB","OBJECT_ID":"1999-025CLC","EPOCH":"2026-02-26T03:24:51.821280","MEAN_MOTION":13.94192483,"ECCENTRICITY":0.01314193,"INCLINATION":98.6121,"RA_OF_ASC_NODE":18.184,"ARG_OF_PERICENTER":341.7187,"MEAN_ANOMALY":17.9275,"EPHEMERIS_TYPE":0,"CLASSIFICATION_TYPE":"U","NORAD_CAT_ID":31901,"ELEMENT_SET_NO":999,"REV_AT_EPOCH":64458,"BSTAR":0.00015913033,"MEAN_MOTION_DOT":1.86e-6,"MEAN_MOTION_DDOT":0},{"OBJECT_NAME":"FENGYUN 1C DEB","OBJECT_ID":"1999-025CLD","EPOCH":"2026-03-04T10:10:59.556288","MEAN_MOTION":14.23461108,"ECCENTRICITY":0.01787236,"INCLINATION":98.5188,"RA_OF_ASC_NODE":45.6767,"ARG_OF_PERICENTER":271.3947,"MEAN_ANOMALY":244.3083,"EPHEMERIS_TYPE":0,"CLASSIFICATION_TYPE":"U","NORAD_CAT_ID":31902,"ELEMENT_SET_NO":999,"REV_AT_EPOCH":65953,"BSTAR":0.0004042526,"MEAN_MOTION_DOT":1.036e-5,"MEAN_MOTION_DDOT":0},{"OBJECT_NAME":"FENGYUN 1C DEB","OBJECT_ID":"1999-025CLE","EPOCH":"2026-03-04T10:46:11.970624","MEAN_MOTION":14.6119913,"ECCENTRICITY":0.01283612,"INCLINATION":99.28,"RA_OF_ASC_NODE":66.6643,"ARG_OF_PERICENTER":147.83,"MEAN_ANOMALY":213.0811,"EPHEMERIS_TYPE":0,"CLASSIFICATION_TYPE":"U","NORAD_CAT_ID":31903,"ELEMENT_SET_NO":999,"REV_AT_EPOCH":98588,"BSTAR":0.00069872072,"MEAN_MOTION_DOT":3.806e-5,"MEAN_MOTION_DDOT":0},{"OBJECT_NAME":"FENGYUN 1C DEB","OBJECT_ID":"1999-025CLG","EPOCH":"2026-03-04T09:25:18.741792","MEAN_MOTION":14.33598535,"ECCENTRICITY":0.01939271,"INCLINATION":99.1617,"RA_OF_ASC_NODE":49.3522,"ARG_OF_PERICENTER":216.4523,"MEAN_ANOMALY":142.3326,"EPHEMERIS_TYPE":0,"CLASSIFICATION_TYPE":"U","NORAD_CAT_ID":31905,"ELEMENT_SET_NO":999,"REV_AT_EPOCH":97794,"BSTAR":0.00056729685,"MEAN_MOTION_DOT":1.883e-5,"MEAN_MOTION_DDOT":0},{"OBJECT_NAME":"FENGYUN 1C DEB","OBJECT_ID":"1999-025CLH","EPOCH":"2026-03-04T07:38:23.523648","MEAN_MOTION":14.25575241,"ECCENTRICITY":0.00517217,"INCLINATION":98.6905,"RA_OF_ASC_NODE":200.6718,"ARG_OF_PERICENTER":239.8793,"MEAN_ANOMALY":183.7474,"EPHEMERIS_TYPE":0,"CLASSIFICATION_TYPE":"U","NORAD_CAT_ID":31906,"ELEMENT_SET_NO":999,"REV_AT_EPOCH":96291,"BSTAR":0.0033809201,"MEAN_MOTION_DOT":8.078e-5,"MEAN_MOTION_DDOT":0},{"OBJECT_NAME":"FENGYUN 1C DEB","OBJECT_ID":"1999-025CLM","EPOCH":"2026-02-03T06:28:48.998784","MEAN_MOTION":14.48232089,"ECCENTRICITY":0.0225377,"INCLINATION":97.6633,"RA_OF_ASC_NODE":55.6434,"ARG_OF_PERICENTER":353.1022,"MEAN_ANOMALY":6.7086,"EPHEMERIS_TYPE":0,"CLASSIFICATION_TYPE":"U","NORAD_CAT_ID":31910,"ELEMENT_SET_NO":999,"REV_AT_EPOCH":65129,"BSTAR":0.0013993,"MEAN_MOTION_DOT":7.163e-5,"MEAN_MOTION_DDOT":0},{"OBJECT_NAME":"FENGYUN 1C DEB","OBJECT_ID":"1999-025CLQ","EPOCH":"2026-03-04T17:47:31.545312","MEAN_MOTION":13.92314437,"ECCENTRICITY":0.0193015,"INCLINATION":99.2928,"RA_OF_ASC_NODE":349.9389,"ARG_OF_PERICENTER":89.1909,"MEAN_ANOMALY":273.136,"EPHEMERIS_TYPE":0,"CLASSIFICATION_TYPE":"U","NORAD_CAT_ID":31913,"ELEMENT_SET_NO":999,"REV_AT_EPOCH":57027,"BSTAR":0.0028183,"MEAN_MOTION_DOT":4.172e-5,"MEAN_MOTION_DDOT":0},{"OBJECT_NAME":"FENGYUN 1C DEB","OBJECT_ID":"1999-025CLR","EPOCH":"2026-03-03T02:33:02.925504","MEAN_MOTION":14.55889084,"ECCENTRICITY":0.01815681,"INCLINATION":99.0195,"RA_OF_ASC_NODE":296.6677,"ARG_OF_PERICENTER":185.5395,"MEAN_ANOMALY":174.3795,"EPHEMERIS_TYPE":0,"CLASSIFICATION_TYPE":"U","NORAD_CAT_ID":31914,"ELEMENT_SET_NO":999,"REV_AT_EPOCH":69642,"BSTAR":0.00013832578,"MEAN_MOTION_DOT":6.93e-6,"MEAN_MOTION_DDOT":0},{"OBJECT_NAME":"FENGYUN 1C DEB","OBJECT_ID":"1999-025CLS","EPOCH":"2026-03-02T08:02:09.484800","MEAN_MOTION":14.16509088,"ECCENTRICITY":0.01017986,"INCLINATION":98.6287,"RA_OF_ASC_NODE":81.737,"ARG_OF_PERICENTER":42.3065,"MEAN_ANOMALY":318.5905,"EPHEMERIS_TYPE":0,"CLASSIFICATION_TYPE":"U","NORAD_CAT_ID":31915,"ELEMENT_SET_NO":999,"REV_AT_EPOCH":65234,"BSTAR":0.0009750015,"MEAN_MOTION_DOT":2.0e-5,"MEAN_MOTION_DDOT":0},{"OBJECT_NAME":"FENGYUN 1C DEB","OBJECT_ID":"1999-025CLT","EPOCH":"2026-02-05T12:02:21.055776","MEAN_MOTION":14.33006857,"ECCENTRICITY":0.01442478,"INCLINATION":99.324,"RA_OF_ASC_NODE":130.8608,"ARG_OF_PERICENTER":297.3658,"MEAN_ANOMALY":61.2906,"EPHEMERIS_TYPE":0,"CLASSIFICATION_TYPE":"U","NORAD_CAT_ID":31916,"ELEMENT_SET_NO":999,"REV_AT_EPOCH":65311,"BSTAR":0.002070348,"MEAN_MOTION_DOT":6.313e-5,"MEAN_MOTION_DDOT":0},{"OBJECT_NAME":"FENGYUN 1C DEB","OBJECT_ID":"1999-025CLU","EPOCH":"2026-03-04T18:36:42.323040","MEAN_MOTION":14.37944608,"ECCENTRICITY":0.0190458,"INCLINATION":98.3685,"RA_OF_ASC_NODE":59.406,"ARG_OF_PERICENTER":47.5322,"MEAN_ANOMALY":125.5828,"EPHEMERIS_TYPE":0,"CLASSIFICATION_TYPE":"U","NORAD_CAT_ID":31917,"ELEMENT_SET_NO":999,"REV_AT_EPOCH":97600,"BSTAR":0.00088214,"MEAN_MOTION_DOT":3.242e-5,"MEAN_MOTION_DDOT":0},{"OBJECT_NAME":"FENGYUN 1C DEB","OBJECT_ID":"1999-025CLW","EPOCH":"2026-02-26T15:36:55.154304","MEAN_MOTION":14.46029411,"ECCENTRICITY":0.01012464,"INCLINATION":99.1107,"RA_OF_ASC_NODE":210.6228,"ARG_OF_PERICENTER":342.1352,"MEAN_ANOMALY":78.0869,"EPHEMERIS_TYPE":0,"CLASSIFICATION_TYPE":"U","NORAD_CAT_ID":31919,"ELEMENT_SET_NO":999,"REV_AT_EPOCH":98178,"BSTAR":0.00026825709,"MEAN_MOTION_DOT":9.63e-6,"MEAN_MOTION_DDOT":0},{"OBJECT_NAME":"FENGYUN 1C DEB","OBJECT_ID":"1999-025CLY","EPOCH":"2026-03-02T16:00:41.640768","MEAN_MOTION":13.75485339,"ECCENTRICITY":0.0203165,"INCLINATION":99.3366,"RA_OF_ASC_NODE":317.4177,"ARG_OF_PERICENTER":53.9169,"MEAN_ANOMALY":308.0608,"EPHEMERIS_TYPE":0,"CLASSIFICATION_TYPE":"U","NORAD_CAT_ID":31921,"ELEMENT_SET_NO":999,"REV_AT_EPOCH":93405,"BSTAR":0.0017888,"MEAN_MOTION_DOT":1.959e-5,"MEAN_MOTION_DDOT":0}]
